STARLINK-31651          
1 59860U 24098C   26068.01851422  .00003644  00000+0  14194-3 0  9994
2 59860  42.9980 281.7759 0000876 256.3852 103.6902 15.27560792101741
OTTER                   
1 62623U 25009Q   26068.72300813  .00012198  00000+0  45151-3 0  9990
2 62623  97.4065 151.3812 0003573 310.7710  49.3219 15.27809545 63722
